IRIDIUM 7 [-]           
1 24793U 97020B   24078.86936232  .00000521  00000+0  17576-3 0  9999
2 24793  86.4021   7.6388 0002158  93.5292 266.6151 14.35118397406577
IRIDIUM 5 [-]           
1 24795U 97020D   24078.78654674  .00003195  00000+0  31116-3 0  9995
2 24795  86.3891 292.2646 0123123 324.2107  35.0910 14.86551769417637
IRIDIUM 4 [-]           
1 24796U 97020E   24078.86452995  .00000571  00000+0  18974-3 0  9999
2 24796  86.4017   4.8237 0002034  87.4067 272.7363 14.36035433407105
IRIDIUM 914 [-]         
1 24836U 97030A   24078.85858624  .00000631  00000+0  19461-3 0  9992
2 24836  86.3989  14.7561 0000679  37.9327 322.1920 14.39875400541588
IRIDIUM 16 [-]          
1 24841U 97030F   24078.91087363  .00000699  00000+0  22572-3 0  9990
2 24841  86.4052  36.4689 0004146 103.1902 256.9759 14.37759645401563
IRIDIUM 911 [-]         
1 24842U 97030G   24078.89128715  .00000873  00000+0  23757-3 0  9995
2 24842  86.4481  35.6802 0014577 166.1550 194.0055 14.46357377409245
IRIDIUM 17 [-]          
1 24870U 97034B   24078.89256359  .00000644  00000+0  21129-3 0  9993
2 24870  86.3917  66.1075 0003825  78.7649 281.3978 14.36846921398182
IRIDIUM 920 [-]         
1 24871U 97034C   24078.92591184  .00000641  00000+0  19499-3 0  9990
2 24871  86.3971  46.3733 0012966 135.3130 224.9117 14.40573342401019
